"OBJECT_NAME","OBJECT_ID","EPOCH","MEAN_MOTION","ECCENTRICITY","INCLINATION","RA_OF_ASC_NODE","ARG_OF_PERICENTER","MEAN_ANOMALY","EPHEMERIS_TYPE","CLASSIFICATION_TYPE","NORAD_CAT_ID","ELEMENT_SET_NO","REV_AT_EPOCH","BSTAR","MEAN_MOTION_DOT","MEAN_MOTION_DDOT"
"STARLINK-5458","2022-175G","2025-03-25T11:53:47.181408",15.08856906,0.0001708,53.2154,171.6428,89.4846,270.6342,0,"U",54764,999,12504,0.0018233,0.00028863,0
"STARLINK-5471","2022-175J","2025-03-25T12:03:01.807200",15.08823595,0.00023,53.2145,171.6789,92.6126,267.513,0,"U",54766,999,12504,0.00037866,0.00005741,0
"STARLINK-5472","2022-175K","2025-03-25T11:57:43.507008",15.08823596,0.0001688,53.2155,171.6572,100.8278,259.2904,0,"U",54767,999,12504,0.00037082,0.00005616,0
"STARLINK-5444","2022-175L","2025-03-24T22:33:00.118944",15.08857165,0.000135,53.216,159.5966,85.5009,274.6137,0,"U",54768,999,12516,0.0000035551,-0.00000231,0
"STARLINK-5448","2022-175N","2025-03-24T22:05:06.719424",15.08851097,0.000182,53.2173,159.4802,85.2622,274.8578,0,"U",54770,999,12516,0.00072856,0.0001133,0
"STARLINK-5451","2022-175P","2025-03-24T14:54:29.119104",15.0884795,0.0001533,53.2163,170.4391,82.622,277.4947,0,"U",54771,999,12714,0.00038302,0.00005814,0
"STARLINK-5452","2022-175Q","2025-03-25T09:07:30.502560",15.0884627,0.0000798,53.2154,157.3722,86.8517,273.2567,0,"U",54772,999,12523,0.0013975,0.00022027,0
"STARLINK-5453","2022-175R","2025-03-24T23:04:00.926976",15.08861839,0.0001673,53.2156,173.9893,105.0881,255.0297,0,"U",54773,999,12496,0.001098,0.0001724,0
"STARLINK-5454","2022-175S","2025-03-24T22:31:31.410336",15.08854782,0.0000989,53.2147,158.8949,97.4092,262.7012,0,"U",54774,999,12517,0.0011309,0.00017763,0
"STARLINK-5465","2022-175T","2025-03-25T11:41:47.518656",15.0885124,0.0000867,53.2156,171.5872,92.9577,267.1514,0,"U",54775,999,12504,0.0011285,0.00017723,0
"STARLINK-5470","2022-175U","2025-03-25T11:09:58.499424",15.08818606,0.0001389,53.2173,171.454,92.0824,268.0327,0,"U",54776,999,12504,0.00024271,0.00003575,0
"STARLINK-5468","2022-175V","2025-03-25T11:36:29.684160",15.08828193,0.0001863,53.2188,171.563,83.2103,276.9101,0,"U",54777,999,12504,0.00017877,0.00002557,0
"STARLINK-5450","2022-175W","2025-03-25T08:56:53.714688",15.08847409,0.0001518,53.2156,157.3289,106.9221,253.1938,0,"U",54778,999,12523,0.00020756,0.00003018,0
"STARLINK-5447","2022-175X","2025-03-25T09:02:12.031296",15.0884735,0.000143,53.2164,157.3504,93.0465,267.0691,0,"U",54779,999,12523,0.00020752,0.00003017,0
"STARLINK-5449","2022-175Y","2025-03-25T11:46:26.861952",15.08831447,0.0001673,53.2171,156.6455,88.1433,271.9751,0,"U",54780,999,12525,0.00012577,0.00001714,0
"STARLINK-5443","2022-175Z","2025-03-24T21:43:54.059520",15.08848722,0.0001157,53.2167,159.3796,103.4492,256.6629,0,"U",54781,999,12732,0.0010689,0.00016769,0
"STARLINK-5439","2022-175AB","2025-03-25T11:57:03.536640",15.0883171,0.0001311,53.2166,156.6881,84.588,275.5261,0,"U",54783,999,12525,0.00018597,0.00002672,0
"STARLINK-5442","2022-175AC","2025-03-25T11:31:10.795584",15.08843465,0.0001201,53.2168,171.5425,79.5136,280.5992,0,"U",54784,999,12504,0.00017571,0.0000251,0
"STARLINK-5440","2022-175AD","2025-03-24T19:36:40.725792",15.0884507,0.0001331,53.2158,119.6271,95.0382,265.0762,0,"U",54785,999,12571,0.000092105,0.00001178,0
"STARLINK-5441","2022-175AF","2025-03-25T11:25:50.780352",15.0885398,0.0000939,53.2163,171.5192,65.715,294.394,0,"U",54787,999,12504,-0.0015196,-0.00024399,0
"STARLINK-5399","2022-175AG","2025-03-25T11:41:08.058912",15.08853669,0.0001723,53.2158,156.6235,100.4554,259.6633,0,"U",54788,999,12525,0.00036889,0.0000559,0
"STARLINK-5446","2022-175AH","2025-03-25T03:43:32.143296",15.08847841,0.0002223,53.2151,143.0088,78.105,282.0191,0,"U",54789,999,12541,0.0002419,0.00003565,0
"STARLINK-5445","2022-175AJ","2025-03-25T11:30:32.085792",15.08830155,0.0001189,53.2164,156.5743,101.5614,258.5512,0,"U",54790,999,12525,0.00048516,0.0000744,0
"STARLINK-5425","2022-175AK","2025-03-24T15:11:43.655424",15.08837441,0.0001248,53.2166,160.5299,90.1267,269.9869,0,"U",54791,999,12728,0.0000045202,-0.00000216,0
"STARLINK-5431","2022-175AL","2025-03-25T11:15:16.476480",15.08823391,0.000139,53.2175,171.4743,100.8898,259.225,0,"U",54792,999,12504,0.000087757,0.00001108,0
"STARLINK-5433","2022-175AM","2025-03-24T12:02:18.006720",15.08841976,0.0001379,53.2152,151.1876,88.7726,271.3424,0,"U",54793,999,12524,0.00054715,0.00008431,0
"STARLINK-5392","2022-175AN","2025-03-25T12:00:00.999648",15.7366751,0.0009681,53.1843,109.2554,21.4206,152.0539,0,"U",54794,999,12592,0.0032248,0.00489798,0
"STARLINK-5436","2022-175AP","2025-03-25T11:35:50.177760",15.08834846,0.0001493,53.2154,156.5943,94.4126,265.7037,0,"U",54795,999,12525,0.00022412,0.0000328,0
"STARLINK-5415","2022-175AQ","2025-03-25T11:25:13.079712",15.0884643,0.0001793,53.2158,156.5522,83.6561,276.4636,0,"U",54796,999,12525,0.00035464,0.00005362,0
"STARLINK-5435","2022-175AR","2025-03-25T11:43:10.254432",15.0884474,0.0001629,53.2144,171.5894,93.984,266.1338,0,"U",54797,999,12504,0.00084096,0.00013123,0
"STARLINK-5420","2022-175AS","2025-03-25T11:21:15.082272",15.0882598,0.0001222,53.2179,146.58,115.9153,244.1965,0,"U",54798,999,12539,0.00021333,0.00003108,0
"STARLINK-5421","2022-175AT","2025-03-24T21:29:19.183488",15.08836709,0.0001795,53.2159,149.3708,86.5719,273.5478,0,"U",54799,999,12530,0.00033642,0.0000507,0
"STARLINK-5428","2022-175AU","2025-03-25T11:32:30.539328",15.08861136,0.000188,53.2152,161.5519,81.4539,278.6666,0,"U",54800,999,12519,0.00081415,0.000127,0
"STARLINK-5429","2022-175AV","2025-03-25T11:04:39.015552",15.08818159,0.0001332,53.2166,171.4253,92.257,267.8574,0,"U",54801,999,12504,0.00025933,0.00003839,0
"STARLINK-5426","2022-175AW","2025-03-24T09:21:53.565984",15.08841835,0.0001438,53.2157,121.132,95.4742,264.6414,0,"U",54802,999,12781,-0.000018078,-0.00000576,0
"STARLINK-5430","2022-175AX","2025-03-25T11:20:34.083744",15.08843703,0.0001295,53.2157,171.4815,109.8285,250.2847,0,"U",54803,999,12504,0.00046709,0.00007154,0
"STARLINK-5422","2022-175AY","2025-03-24T22:10:18.104160",15.0884927,0.0001827,53.2161,158.7984,79.4963,280.6235,0,"U",54804,999,12733,0.00091423,0.00014296,0
"STARLINK-5417","2022-175AZ","2025-03-24T22:36:49.745952",15.08850207,0.0001824,53.2164,158.903,110.8225,249.2963,0,"U",54805,999,12517,0.0007264,0.00011295,0
"STARLINK-5412","2022-175BA","2025-03-24T22:20:54.163680",15.08860107,0.0001518,53.2166,158.841,95.6432,264.4733,0,"U",54806,999,12517,0.00022581,0.0000331,0
"STARLINK-5410","2022-175BB","2025-03-23T22:35:26.318976",15.0881936,0.0002168,53.2165,163.3236,96.9448,263.179,0,"U",54807,999,12502,0.00072704,0.00011295,0
"STARLINK-5413","2022-175BC","2025-03-24T10:40:50.598912",15.08841358,0.0001354,53.2172,146.6014,91.281,268.8337,0,"U",54808,999,12530,-0.000039587,-0.00000918,0
"STARLINK-5414","2022-175BD","2025-03-24T22:15:35.663040",15.08846428,0.0001627,53.2182,158.8129,89.0537,271.0641,0,"U",54809,999,12733,-0.00010821,-0.0000201,0
"STARLINK-5408","2022-175BE","2025-03-25T11:28:31.565568",15.0886084,0.0001755,53.2172,151.5652,100.8368,259.2822,0,"U",54810,999,12532,0.00055892,0.00008623,0
"STARLINK-5424","2022-175BF","2025-03-25T08:56:18.198240",15.0886511,0.0001607,53.2179,152.3131,83.8348,276.2828,0,"U",54811,999,12530,0.00077961,0.0001215,0
"GAOFEN-11 04","2022-176A","2025-03-25T11:20:33.105696",15.23470801,0.0003799,97.3619,219.2343,55.6065,304.553,0,"U",54818,999,12493,0.00074705,0.00017773,0
"STARLINK-5382","2022-177A","2025-03-24T18:14:41.586720",15.02537629,0.0001272,43.0007,235.0236,271.3172,88.7525,0,"U",54820,999,12431,-1.1643e-7,-0.00000205,0
"STARLINK-5385","2022-177B","2025-03-24T21:08:33.616896",15.02546013,0.0001289,43.0027,234.2148,268.9397,91.1298,0,"U",54821,999,12335,0.000042009,0.00000364,0
"STARLINK-5101","2022-177C","2025-03-24T09:52:04.823616",15.02536137,0.0001357,42.9992,236.7049,272.2646,87.8041,0,"U",54822,999,12426,0.00011916,0.00001406,0
"STARLINK-5106","2022-177D","2025-03-24T21:21:20.918880",15.02546246,0.0001301,43.0014,234.2781,263.3692,96.7002,0,"U",54823,999,12335,0.00014534,0.00001761,0
"STARLINK-4643","2022-177E","2025-03-24T21:16:33.466944",15.02540023,0.0001272,43.0003,234.2516,284.517,75.5532,0,"U",54824,999,12335,0.000072072,0.0000077,0
"STARLINK-4801","2022-177F","2025-03-25T02:00:01.999872",15.0554125,0.0005006,43.0004,232.771,323.1007,197.0963,0,"U",54825,999,12339,0.0023266,0.0003402,0
"STARLINK-5107","2022-177G","2025-03-24T21:03:45.972288",15.02506881,0.0000317,43.0014,234.1827,258.8738,101.2068,0,"U",54826,999,12335,-0.00015579,-0.00002305,0
"STARLINK-5383","2022-177H","2025-03-25T11:14:07.504224",15.02546379,0.0001814,43.0045,230.8781,272.0513,88.0122,0,"U",54827,999,12344,-0.00011612,-0.00001772,0
"STARLINK-5381","2022-177J","2025-03-25T09:33:35.993664",15.02548927,0.0001648,43.0031,231.2125,261.0013,99.0643,0,"U",54828,999,12343,0.000093302,0.00001057,0
"STARLINK-5394","2022-177L","2025-03-25T03:02:42.770688",15.02534326,0.0001486,43.0014,232.6146,266.9239,93.1433,0,"U",54830,999,12339,0.000090784,0.00001023,0
"STARLINK-5395","2022-177M","2025-03-25T03:20:18.165696",15.025293,0.0000332,42.9984,232.707,313.5893,46.4922,0,"U",54831,999,12339,0.000044228,0.00000394,0
"STARLINK-5393","2022-177N","2025-03-24T20:05:10.789152",15.02539195,0.0001336,43.0012,221.7425,262.2486,97.8205,0,"U",54832,999,12349,0.0010251,0.00013672,0
"STARLINK-5391","2022-177P","2025-03-25T09:35:12.689952",15.02535744,0.0001023,42.9998,231.2214,280.4948,79.5779,0,"U",54833,999,12343,0.00023952,0.00003033,0
"STARLINK-5386","2022-177Q","2025-03-24T17:26:44.635200",15.0253847,0.0001525,43.0015,234.7747,265.178,94.8888,0,"U",54834,999,12432,0.00012258,0.00001453,0
"STARLINK-5389","2022-177R","2025-03-24T19:08:54.236544",15.02518502,0.0001024,43.0028,234.4481,265.8245,94.2481,0,"U",54835,999,12432,-0.00019228,-0.00002799,0
"STARLINK-5384","2022-177S","2025-03-24T18:57:40.510080",15.02536828,0.0001337,43.0023,234.3855,271.4494,88.6196,0,"U",54836,999,12334,0.000064234,0.00000664,0
